STARLINK-36269          
1 67472U 26008AD  26031.16668981  .00023644  00000+0  15660-3 0  9998
2 67472  43.0000  60.8188 0001219 249.8919  24.4568 15.75038836  3784
STARLINK-36408          
1 67473U 26008AE  26031.16668981 -.00161750  00000+0 -10655-2 0  9990
2 67473  43.0000  60.8093 0001569 268.4953   9.6748 15.75137929  3781
ALSAT-3A                
1 67474U 26009A   26031.17389968  .00007122  00000+0  30261-3 0  9994
2 67474  97.4701 105.8748 0011760 200.0669 160.0107 15.23302513  2416
CZ-2C R/B               
1 67475U 26009B   26031.19051455  .00004879  00000+0  32875-3 0  9993
2 67475  97.1793 104.4899 0099760 167.1606 193.2196 15.03055971  2447
TIANQI-37               
1 67476U 26010A   26031.14955155  .00000435  00000+0  29974-3 0  9991
2 67476  44.9837 333.6885 0013172  28.8305 331.3259 14.13519170  2171
TIANQI-38               
1 67477U 26010B   26031.14729834  .00000432  00000+0  29592-3 0  9998
2 67477  44.9799 333.6707 0011958  33.9051 326.2550 14.13896113  2179
TIANQI-39               
1 67478U 26010C   26030.29948455  .00000372  00000+0  26634-3 0  9993
2 67478  44.9851 337.5422 0014474  35.9267 324.2542 14.13517208  2054
TIANQI-40               
1 67479U 26010D   26028.88577045  .00000320  00000+0  23705-3 0  9998
2 67479  44.9851 343.9821 0013061  21.9564 338.1832 14.13986611  1856
SZ-20 MODULE            
1 67481U 25082C   26031.18903213  .00020972  00000+0  23574-3 0  9995
2 67481  41.4790  75.9541 0006224  56.1985 303.9446 15.62079497271753
ION SCV-021             
1 67483U 25276DT  26031.11240405  .00000899  00000+0  82126-4 0  9997
2 67483  97.5412 106.5336 0010940 221.1070 138.9329 14.97376944  2099
STARLINK-36551          
1 67493U 26012A   26031.16668981 -.01578217  00000+0 -57433-2 0  9993
2 67493  42.9965 171.5754 0001584 270.0711  72.9199 15.90070491  3031
STARLINK-36396          
1 67494U 26012B   26031.16668981 -.02301708  00000+0 -88463-2 0  9991
2 67494  42.9963 171.5706 0001625 272.2770  72.6414 15.89692454  3036
