CCSDS_OMM_VERS = 2.0
CREATION_DATE  = 
ORIGINATOR     = 

OBJECT_NAME    = STARLINK-36269
OBJECT_ID      = 2026-008AD
CENTER_NAME    = EARTH
REF_FRAME      = TEME
TIME_SYSTEM    = UTC
MEAN_ELEMENT_THEORY = SGP/SGP4

EPOCH          = 2026-01-31T04:00:01.999584
MEAN_MOTION    = 15.75038836
ECCENTRICITY   = .0001219
INCLINATION    = 43.0000
RA_OF_ASC_NODE = 60.8188
ARG_OF_PERICENTER = 249.8919
MEAN_ANOMALY   = 24.4568

EPHEMERIS_TYPE = 0
CLASSIFICATION_TYPE = U
NORAD_CAT_ID   = 67472
ELEMENT_SET_NO = 999
REV_AT_EPOCH   = 378
BSTAR          = .1566E-3
MEAN_MOTION_DOT = .23644E-3
MEAN_MOTION_DDOT = 0

CCSDS_OMM_VERS = 2.0
CREATION_DATE  = 
ORIGINATOR     = 

OBJECT_NAME    = STARLINK-36408
OBJECT_ID      = 2026-008AE
CENTER_NAME    = EARTH
REF_FRAME      = TEME
TIME_SYSTEM    = UTC
MEAN_ELEMENT_THEORY = SGP/SGP4

EPOCH          = 2026-01-31T04:00:01.999584
MEAN_MOTION    = 15.75137929
ECCENTRICITY   = .0001569
INCLINATION    = 43.0000
RA_OF_ASC_NODE = 60.8093
ARG_OF_PERICENTER = 268.4953
MEAN_ANOMALY   = 9.6748

EPHEMERIS_TYPE = 0
CLASSIFICATION_TYPE = U
NORAD_CAT_ID   = 67473
ELEMENT_SET_NO = 999
REV_AT_EPOCH   = 378
BSTAR          = -.10655E-2
MEAN_MOTION_DOT = -.16175E-2
MEAN_MOTION_DDOT = 0

CCSDS_OMM_VERS = 2.0
CREATION_DATE  = 
ORIGINATOR     = 

OBJECT_NAME    = ALSAT-3A
OBJECT_ID      = 2026-009A
CENTER_NAME    = EARTH
REF_FRAME      = TEME
TIME_SYSTEM    = UTC
MEAN_ELEMENT_THEORY = SGP/SGP4

EPOCH          = 2026-01-31T04:10:24.932352
MEAN_MOTION    = 15.23302513
ECCENTRICITY   = .001176
INCLINATION    = 97.4701
RA_OF_ASC_NODE = 105.8748
ARG_OF_PERICENTER = 200.0669
MEAN_ANOMALY   = 160.0107

EPHEMERIS_TYPE = 0
CLASSIFICATION_TYPE = U
NORAD_CAT_ID   = 67474
ELEMENT_SET_NO = 999
REV_AT_EPOCH   = 241
BSTAR          = .30261E-3
MEAN_MOTION_DOT = .7122E-4
MEAN_MOTION_DDOT = 0

CCSDS_OMM_VERS = 2.0
CREATION_DATE  = 
ORIGINATOR     = 

OBJECT_NAME    = CZ-2C R/B
OBJECT_ID      = 2026-009B
CENTER_NAME    = EARTH
REF_FRAME      = TEME
TIME_SYSTEM    = UTC
MEAN_ELEMENT_THEORY = SGP/SGP4

EPOCH          = 2026-01-31T04:34:20.457120
MEAN_MOTION    = 15.03055971
ECCENTRICITY   = .009976
INCLINATION    = 97.1793
RA_OF_ASC_NODE = 104.4899
ARG_OF_PERICENTER = 167.1606
MEAN_ANOMALY   = 193.2196

EPHEMERIS_TYPE = 0
CLASSIFICATION_TYPE = U
NORAD_CAT_ID   = 67475
ELEMENT_SET_NO = 999
REV_AT_EPOCH   = 244
BSTAR          = .32875E-3
MEAN_MOTION_DOT = .4879E-4
MEAN_MOTION_DDOT = 0

CCSDS_OMM_VERS = 2.0
CREATION_DATE  = 
ORIGINATOR     = 

OBJECT_NAME    = TIANQI-37
OBJECT_ID      = 2026-010A
CENTER_NAME    = EARTH
REF_FRAME      = TEME
TIME_SYSTEM    = UTC
MEAN_ELEMENT_THEORY = SGP/SGP4

EPOCH          = 2026-01-31T03:35:21.253920
MEAN_MOTION    = 14.13519170
ECCENTRICITY   = .0013172
INCLINATION    = 44.9837
RA_OF_ASC_NODE = 333.6885
ARG_OF_PERICENTER = 28.8305
MEAN_ANOMALY   = 331.3259

EPHEMERIS_TYPE = 0
CLASSIFICATION_TYPE = U
NORAD_CAT_ID   = 67476
ELEMENT_SET_NO = 999
REV_AT_EPOCH   = 217
BSTAR          = .29974E-3
MEAN_MOTION_DOT = .435E-5
MEAN_MOTION_DDOT = 0

CCSDS_OMM_VERS = 2.0
CREATION_DATE  = 
ORIGINATOR     = 

OBJECT_NAME    = TIANQI-38
OBJECT_ID      = 2026-010B
CENTER_NAME    = EARTH
REF_FRAME      = TEME
TIME_SYSTEM    = UTC
MEAN_ELEMENT_THEORY = SGP/SGP4

EPOCH          = 2026-01-31T03:32:06.576576
MEAN_MOTION    = 14.13896113
ECCENTRICITY   = .0011958
INCLINATION    = 44.9799
RA_OF_ASC_NODE = 333.6707
ARG_OF_PERICENTER = 33.9051
MEAN_ANOMALY   = 326.2550

EPHEMERIS_TYPE = 0
CLASSIFICATION_TYPE = U
NORAD_CAT_ID   = 67477
ELEMENT_SET_NO = 999
REV_AT_EPOCH   = 217
BSTAR          = .29592E-3
MEAN_MOTION_DOT = .432E-5
MEAN_MOTION_DDOT = 0

CCSDS_OMM_VERS = 2.0
CREATION_DATE  = 
ORIGINATOR     = 

OBJECT_NAME    = TIANQI-39
OBJECT_ID      = 2026-010C
CENTER_NAME    = EARTH
REF_FRAME      = TEME
TIME_SYSTEM    = UTC
MEAN_ELEMENT_THEORY = SGP/SGP4

EPOCH          = 2026-01-30T07:11:15.465120
MEAN_MOTION    = 14.13517208
ECCENTRICITY   = .00144744
INCLINATION    = 44.9851
RA_OF_ASC_NODE = 337.5422
ARG_OF_PERICENTER = 35.9267
MEAN_ANOMALY   = 324.2542

EPHEMERIS_TYPE = 0
CLASSIFICATION_TYPE = U
NORAD_CAT_ID   = 67478
ELEMENT_SET_NO = 999
REV_AT_EPOCH   = 205
BSTAR          = .266337E-3
MEAN_MOTION_DOT = .372E-5
MEAN_MOTION_DDOT = 0

CCSDS_OMM_VERS = 2.0
CREATION_DATE  = 
ORIGINATOR     = 

OBJECT_NAME    = TIANQI-40
OBJECT_ID      = 2026-010D
CENTER_NAME    = EARTH
REF_FRAME      = TEME
TIME_SYSTEM    = UTC
MEAN_ELEMENT_THEORY = SGP/SGP4

EPOCH          = 2026-01-28T21:15:30.566880
MEAN_MOTION    = 14.13986611
ECCENTRICITY   = .0013061
INCLINATION    = 44.9851
RA_OF_ASC_NODE = 343.9821
ARG_OF_PERICENTER = 21.9564
MEAN_ANOMALY   = 338.1832

EPHEMERIS_TYPE = 0
CLASSIFICATION_TYPE = U
NORAD_CAT_ID   = 67479
ELEMENT_SET_NO = 999
REV_AT_EPOCH   = 185
BSTAR          = .23704672E-3
MEAN_MOTION_DOT = .32E-5
MEAN_MOTION_DDOT = 0

CCSDS_OMM_VERS = 2.0
CREATION_DATE  = 
ORIGINATOR     = 

OBJECT_NAME    = SZ-20 MODULE
OBJECT_ID      = 2025-082C
CENTER_NAME    = EARTH
REF_FRAME      = TEME
TIME_SYSTEM    = UTC
MEAN_ELEMENT_THEORY = SGP/SGP4

EPOCH          = 2026-01-31T04:32:12.376032
MEAN_MOTION    = 15.62079497
ECCENTRICITY   = .0006224
INCLINATION    = 41.4790
RA_OF_ASC_NODE = 75.9541
ARG_OF_PERICENTER = 56.1985
MEAN_ANOMALY   = 303.9446

EPHEMERIS_TYPE = 0
CLASSIFICATION_TYPE = U
NORAD_CAT_ID   = 67481
ELEMENT_SET_NO = 999
REV_AT_EPOCH   = 27175
BSTAR          = .23574E-3
MEAN_MOTION_DOT = .20972E-3
MEAN_MOTION_DDOT = 0

CCSDS_OMM_VERS = 2.0
CREATION_DATE  = 
ORIGINATOR     = 

OBJECT_NAME    = ION SCV-021
OBJECT_ID      = 2025-276DT
CENTER_NAME    = EARTH
REF_FRAME      = TEME
TIME_SYSTEM    = UTC
MEAN_ELEMENT_THEORY = SGP/SGP4

EPOCH          = 2026-01-31T02:41:51.709920
MEAN_MOTION    = 14.97376944
ECCENTRICITY   = .001094
INCLINATION    = 97.5412
RA_OF_ASC_NODE = 106.5336
ARG_OF_PERICENTER = 221.1070
MEAN_ANOMALY   = 138.9329

EPHEMERIS_TYPE = 0
CLASSIFICATION_TYPE = U
NORAD_CAT_ID   = 67483
ELEMENT_SET_NO = 999
REV_AT_EPOCH   = 209
BSTAR          = .82126E-4
MEAN_MOTION_DOT = .899E-5
MEAN_MOTION_DDOT = 0

CCSDS_OMM_VERS = 2.0
CREATION_DATE  = 
ORIGINATOR     = 

OBJECT_NAME    = STARLINK-36551
OBJECT_ID      = 2026-012A
CENTER_NAME    = EARTH
REF_FRAME      = TEME
TIME_SYSTEM    = UTC
MEAN_ELEMENT_THEORY = SGP/SGP4

EPOCH          = 2026-01-31T04:00:01.999584
MEAN_MOTION    = 15.90070491
ECCENTRICITY   = .0001584
INCLINATION    = 42.9965
RA_OF_ASC_NODE = 171.5754
ARG_OF_PERICENTER = 270.0711
MEAN_ANOMALY   = 72.9199

EPHEMERIS_TYPE = 0
CLASSIFICATION_TYPE = U
NORAD_CAT_ID   = 67493
ELEMENT_SET_NO = 999
REV_AT_EPOCH   = 303
BSTAR          = -.57433E-2
MEAN_MOTION_DOT = -.1578217E-1
MEAN_MOTION_DDOT = 0

CCSDS_OMM_VERS = 2.0
CREATION_DATE  = 
ORIGINATOR     = 

OBJECT_NAME    = STARLINK-36396
OBJECT_ID      = 2026-012B
CENTER_NAME    = EARTH
REF_FRAME      = TEME
TIME_SYSTEM    = UTC
MEAN_ELEMENT_THEORY = SGP/SGP4

EPOCH          = 2026-01-31T04:00:01.999584
MEAN_MOTION    = 15.89692454
ECCENTRICITY   = .0001625
INCLINATION    = 42.9963
RA_OF_ASC_NODE = 171.5706
ARG_OF_PERICENTER = 272.2770
MEAN_ANOMALY   = 72.6414

EPHEMERIS_TYPE = 0
CLASSIFICATION_TYPE = U
NORAD_CAT_ID   = 67494
ELEMENT_SET_NO = 999
REV_AT_EPOCH   = 303
BSTAR          = -.88463E-2
MEAN_MOTION_DOT = -.2301708E-1
MEAN_MOTION_DDOT = 0

